OBJECT_NAME,OBJECT_ID,EPOCH,MEAN_MOTION,ECCENTRICITY,INCLINATION,RA_OF_ASC_NODE,ARG_OF_PERICENTER,MEAN_ANOMALY,EPHEMERIS_TYPE,CLASSIFICATION_TYPE,NORAD_CAT_ID,ELEMENT_SET_NO,REV_AT_EPOCH,BSTAR,MEAN_MOTION_DOT,MEAN_MOTION_DDOT
GSAT0216 (GALILEO 20),2017-079B,2026-07-18T23:34:06.566880,1.70474524,.00049311,55.0671,220.6312,278.2350,81.7476,0,U,43056,999,5354,0,.5E-6,0
GSAT0217 (GALILEO 21),2017-079C,2026-07-17T10:38:02.901696,1.70474425,.00042176,55.0656,220.6714,291.8974,68.1010,0,U,43057,999,5350,0,.47E-6,0
GSAT0218 (GALILEO 22),2017-079D,2026-07-15T21:40:57.162432,1.70474408,.0005401,55.0660,220.7113,274.7995,85.1927,0,U,43058,999,5350,0,.53E-6,0
BEIDOU-3 M7 (C27),2018-003A,2026-07-15T06:32:23.968032,1.86228000,.00043462,54.3016,301.3358,99.7203,260.3603,0,U,43107,999,5787,0,-.7E-6,0
BEIDOU-3 M8 (C28),2018-003B,2026-07-19T12:17:56.193216,1.86230816,.00031353,54.2900,301.1685,256.0524,103.9481,0,U,43108,999,5796,0,-.97E-6,0
BEIDOU-3 M4 (C22),2018-018A,2026-07-14T01:10:47.817984,1.86230761,.0007449,56.6746,62.2635,28.5883,331.5267,0,U,43207,999,5724,0,-.38E-6,0
BEIDOU-3 M3 (C21),2018-018B,2026-07-17T08:05:51.086112,1.86230933,.00073001,56.6769,62.1579,348.2235,11.8303,0,U,43208,999,5730,0,-.55E-6,0
BEIDOU-3 M9 (C29),2018-029A,2026-07-19T03:59:27.082752,1.86228215,.00011941,54.1624,298.8290,190.0285,170.0081,0,U,43245,999,5649,0,-.92E-6,0
BEIDOU-3 M10 (C30),2018-029B,2026-07-16T22:51:49.323744,1.86229048,.00032399,54.1629,298.9337,37.5825,322.4793,0,U,43246,999,5643,0,-.77E-6,0
IRNSS-1I,2018-035A,2026-07-18T17:41:38.789664,1.00273309,.0018376,28.8267,73.7035,178.8797,4.4154,0,U,43286,999,3039,0,.63E-6,0
COSMOS 2527 (756),2018-053A,2026-07-18T23:52:07.289184,2.13102002,.00063871,65.5952,72.8467,228.7015,131.3138,0,U,43508,999,6295,0,-.39E-6,0
BEIDOU-2 IGSO-7 (C16),2018-057A,2026-07-16T19:52:42.225600,1.00242392,.01049148,55.1987,162.7987,237.9691,299.1450,0,U,43539,999,2942,0,-.84E-6,0
GSAT0221 (GALILEO 25),2018-060A,2026-07-17T13:36:55.120032,1.70476136,.00027013,57.1585,340.9609,283.6812,76.2771,0,U,43564,999,4968,0,-.104E-5,0
GSAT0222 (GALILEO 26),2018-060B,2026-07-17T18:53:17.244096,1.70475909,.00028604,57.1619,340.9586,235.0008,124.9612,0,U,43565,999,4973,0,-.104E-5,0
GSAT0219 (GALILEO 23),2018-060C,2026-07-18T14:15:59.838048,1.70476160,.00018574,57.1608,340.9384,295.5518,64.4195,0,U,43566,999,4972,0,-.105E-5,0
GSAT0220 (GALILEO 24),2018-060D,2026-07-17T01:20:12.612192,1.70475831,.00021564,57.1613,340.9792,287.6741,72.2898,0,U,43567,999,4968,0,-.103E-5,0
BEIDOU-3 M5 (C23),2018-062A,2026-07-19T07:47:04.733376,1.86228604,.00056321,54.0864,181.2111,294.4430,65.4730,0,U,43581,999,5423,0,.66E-6,0
BEIDOU-3 M6 (C24),2018-062B,2026-07-19T04:30:41.120352,1.86227922,.0005419,54.0864,181.2053,11.3965,348.5899,0,U,43582,999,5423,0,.65E-6,0
BEIDOU-3 M12 (C26),2018-067A,2026-07-19T03:02:02.866848,1.86227554,.00079695,54.1815,179.9574,30.3786,329.6402,0,U,43602,999,5371,0,.64E-6,0
BEIDOU-3 M11 (C25),2018-067B,2026-07-19T06:16:40.107648,1.86227048,.00046941,54.1790,179.9163,13.4853,346.5003,0,U,43603,999,5374,0,.65E-6,0
BEIDOU-3 M13 (C32),2018-072A,2026-07-19T05:11:24.099360,1.86231229,.0005743,56.6525,61.6028,334.8734,25.1634,0,U,43622,999,5325,0,-.72E-6,0
BEIDOU-3 M14 (C33),2018-072B,2026-07-19T01:57:37.173600,1.86231055,.00055043,56.6545,61.6019,12.0189,348.0594,0,U,43623,999,5324,0,-.71E-6,0
BEIDOU-3 M16 (C35),2018-078A,2026-07-16T00:21:25.324416,1.86232227,.00065971,54.0618,298.9748,39.6301,320.4557,0,U,43647,999,5269,0,-.71E-6,0
BEIDOU-3 M15 (C34),2018-078B,2026-07-18T07:00:22.925664,1.86232396,.00034476,54.0554,298.8949,57.5875,302.4853,0,U,43648,999,5275,0,-.87E-6,0
BEIDOU-3 G1 (C59),2018-085A,2026-07-19T14:27:38.623968,1.00272547,.00081035,2.9489,96.4955,356.9143,220.8682,0,U,43683,999,2838,0,-.114E-5,0
COSMOS 2529 (757),2018-086A,2026-07-19T02:10:37.117632,2.13101994,.0012059,64.2975,191.5171,256.3246,103.5401,0,U,43687,999,5996,0,.71E-6,0
BEIDOU-3 M17 (C36),2018-093A,2026-07-19T06:13:01.189056,1.86228397,.00100557,54.1701,181.2081,294.9008,244.8377,0,U,43706,999,5213,0,.66E-6,0
BEIDOU-3 M18 (C37),2018-093B,2026-07-16T16:57:33.359040,1.86226527,.00081568,54.1709,181.2870,323.7143,36.1996,0,U,43707,999,5208,0,.42E-6,0
GPS BIII-1  (PRN 04),2018-109A,2026-07-19T03:55:31.921824,2.00563121,.00387016,55.7011,90.9247,197.0809,335.0982,0,U,43873,999,5571,0,-.4E-6,0
BEIDOU-3 IGSO-1 (C38),2019-023A,2026-07-16T07:41:18.119904,1.00282972,.00259114,58.7368,37.3490,224.0979,267.2124,0,U,44204,999,750,0,-.209E-5,0
BEIDOU-2 G8 (C01),2019-027A,2026-07-19T14:59:38.595264,1.00270519,.00096711,1.7387,74.5178,282.7668,309.5542,0,U,44231,999,2640,0,-.252E-5,0
